[{"OBJECT_NAME":"STARLINK-30992","OBJECT_ID":"2023-191S","EPOCH":"2026-03-09T11:49:24.138336","MEAN_MOTION":15.27227181,"ECCENTRICITY":0.00015435,"INCLINATION":43.0031,"RA_OF_ASC_NODE":104.3339,"ARG_OF_PERICENTER":249.8077,"MEAN_ANOMALY":110.2608,"EPHEMERIS_TYPE":0,"CLASSIFICATION_TYPE":"U","NORAD_CAT_ID":58524,"ELEMENT_SET_NO":999,"REV_AT_EPOCH":12544,"BSTAR":0.0021248429,"MEAN_MOTION_DOT":0.00058041,"MEAN_MOTION_DDOT":0},{"OBJECT_NAME":"OBJECT A","OBJECT_ID":"2025-013A","EPOCH":"2026-03-09T23:29:31.895232","MEAN_MOTION":15.29260221,"ECCENTRICITY":0.0010321,"INCLINATION":97.6364,"RA_OF_ASC_NODE":244.5149,"ARG_OF_PERICENTER":282.3775,"MEAN_ANOMALY":77.6309,"EPHEMERIS_TYPE":0,"CLASSIFICATION_TYPE":"U","NORAD_CAT_ID":62729,"ELEMENT_SET_NO":999,"REV_AT_EPOCH":6276,"BSTAR":0.0013206527,"MEAN_MOTION_DOT":0.00037616,"MEAN_MOTION_DDOT":0}]
